NORAD_CAT_ID,OBJECT_NAME,OBJECT_TYPE,EPOCH,MEAN_MOTION,ECCENTRICITY,INCLINATION,RA_OF_ASC_NODE,ARG_OF_PERICENTER,MEAN_ANOMALY,BSTAR,MEAN_MOTION_DOT,MEAN_MOTION_DDOT,TLE_LINE0,TLE_LINE1,TLE_LINE2,SEMIMAJOR_AXIS,PERIOD,APOGEE,PERIGEE,DECAYED
50836.0,STARLINK-3330,PAYLOAD,2022-06-13 08:45:45,15.0883929,0.000315,53.2168,188.2899,34.8012,325.3186,0.00010578,1.395e-05,0.0,0 STARLINK-3330,1 50836U 22001AK  22164.36511406  .00001395  00000-0  10578-3 0  9990,2 50836  53.2168 188.2899 0003150  34.8012 325.3186 15.08839290 24044,6917.8830000000025,95.438,541.927,537.568,0.0
50836.0,STARLINK-3330,PAYLOAD,2022-06-13 18:18:04,15.0884211,0.0003184,53.2169,186.5057,35.6073,324.5131,0.00010469,1.378e-05,0.0,0 STARLINK-3330,1 50836U 22001AK  22164.76255237  .00001378  00000-0  10469-3 0  9991,2 50836  53.2169 186.5057 0003184  35.6073 324.5131 15.08842110 25468,6917.874,95.437,541.942,537.536,0.0
50836.0,STARLINK-3330,PAYLOAD,2022-06-14 05:25:47,15.0883218,0.0003202,53.2172,184.4246,34.6288,325.4912,1.144e-05,-1.07e-06,0.0,0 STARLINK-3330,1 50836U 22001AK  22165.22624370 -.00000107  00000-0  11440-4 0  9992,2 50836  53.2172 184.4246 0003202  34.6288 325.4912 15.08832180 25538,6917.904,95.438,541.984,537.554,0.0
50836.0,STARLINK-3330,PAYLOAD,2022-06-14 08:36:33,15.08832509,0.0003167,53.2174,183.8293,34.1966,325.923,1.752e-05,-1e-07,0.0,0 STARLINK-3330,1 50836U 22001AK  22165.35872396 -.00000010  00000-0  17520-4 0  9997,2 50836  53.2174 183.8293 0003167  34.1966 325.9230 15.08832509 24197,6917.903,95.438,541.9590000000002,537.577,0.0
50836.0,STARLINK-3330,PAYLOAD,2022-06-14 19:44:15,15.08833637,0.0003226,53.2171,181.7484,35.8719,324.2489,9.2654e-07,-2.74e-06,0.0,0 STARLINK-3330,1 50836U 22001AK  22165.82240580 -.00000274  00000-0  92654-6 0  9998,2 50836  53.2171 181.7484 0003226  35.8719 324.2489 15.08833637 24262,6917.9,95.438,541.997,537.533,0.0
50836.0,STARLINK-3330,PAYLOAD,2022-06-15 03:41:10,15.08840359,0.0003149,53.217,180.2616,34.6537,325.466,1.6856e-05,-2e-07,0.0,0 STARLINK-3330,1 50836U 22001AK  22166.15359487 -.00000020  00000-0  16856-4 0  9999,2 50836  53.2170 180.2616 0003149  34.6537 325.4660 15.08840359 25670,6917.879,95.438,541.923,537.566,0.0
50836.0,STARLINK-3330,PAYLOAD,2022-06-15 10:02:43,15.08839223,0.0003178,53.2173,179.0707,34.3094,325.8103,-8.560299999999998e-07,-3.02e-06,0.0,0 STARLINK-3330,1 50836U 22001AK  22166.41855573 -.00000302  00000-0 -85603-6 0  9997,2 50836  53.2173 179.0707 0003178  34.3094 325.8103 15.08839223 24355,6917.8830000000025,95.438,541.946,537.549,0.0
50836.0,STARLINK-3330,PAYLOAD,2022-06-15 17:59:38,15.08842287,0.000304,53.2175,177.5836,35.4435,324.6758,-2.3821e-05,-6.68e-06,0.0,0 STARLINK-3330,1 50836U 22001AK  22166.74975356 -.00000668  00000-0 -23821-4 0  9992,2 50836  53.2175 177.5836 0003040  35.4435 324.6758 15.08842287 24405,6917.873000000001,95.437,541.841,537.635,0.0
50836.0,STARLINK-3330,PAYLOAD,2022-06-16 00:21:11,15.08838996,0.0002952,53.2173,176.3948,35.8573,324.2617,4.0299e-05,3.53e-06,0.0,0 STARLINK-3330,1 50836U 22001AK  22167.01471347  .00000353  00000-0  40299-4 0  9991,2 50836  53.2173 176.3948 0002952  35.8573 324.2617 15.08838996 24448,6917.8830000000025,95.438,541.7909999999998,537.706,0.0
50836.0,STARLINK-3330,PAYLOAD,2022-06-19 06:15:06,15.088333300000002,0.0003036,53.2169,161.8246,39.2183,320.9029,2.6188e-05,1.28e-06,0.0,0 STARLINK-3330,1 50836U 22001AK  22170.26048771  .00000128  00000-0  26188-4 0  9994,2 50836  53.2169 161.8246 0003036  39.2183 320.9029 15.08833330 24933,6917.901,95.438,541.866,537.6659999999998,0.0
50836.0,STARLINK-3330,PAYLOAD,2022-06-19 18:58:11,15.08831702,0.0003071,53.2167,159.4459,40.5535,319.5686,0.00010065,1.313e-05,0.0,0 STARLINK-3330,1 50836U 22001AK  22170.79041001  .00001313  00000-0  10065-3 0  9994,2 50836  53.2167 159.4459 0003071  40.5535 319.5686 15.08831702 25019,6917.906,95.438,541.895,537.646,0.0
50836.0,STARLINK-3330,PAYLOAD,2022-06-20 06:05:53,15.08836024,0.0003093,53.2167,157.3643,41.6094,318.5133,0.00012432,1.6899999999999994e-05,0.0,0 STARLINK-3330,1 50836U 22001AK  22171.25408905  .00001690  00000-0  12432-3 0  9994,2 50836  53.2167 157.3643 0003093  41.6094 318.5133 15.08836024 25082,6917.893,95.438,541.8969999999998,537.618,0.0
50836.0,STARLINK-3330,PAYLOAD,2022-06-20 18:48:58,15.08842227,0.0003126,53.2168,154.9853,42.4851,317.6382,0.00013927,1.929e-05,0.0,0 STARLINK-3330,1 50836U 22001AK  22171.78400561  .00001929  00000-0  13927-3 0  9997,2 50836  53.2168 154.9853 0003126  42.4851 317.6382 15.08842227 26524,6917.874,95.437,541.901,537.576,0.0
50836.0,STARLINK-3330,PAYLOAD,2022-06-21 07:32:03,15.08835658,0.0003125,53.2172,152.6068,42.8707,317.2528,4.5514e-05,4.36e-06,0.0,0 STARLINK-3330,1 50836U 22001AK  22172.31393297  .00000436  00000-0  45514-4 0  9994,2 50836  53.2172 152.6068 0003125  42.8707 317.2528 15.08835658 26602,6917.894,95.438,541.9209999999998,537.597,0.0
50836.0,STARLINK-3330,PAYLOAD,2022-06-21 17:04:22,15.08835734,0.0003108,53.2175,150.8228,43.1614,316.9621,1.8462e-05,5e-08,0.0,0 STARLINK-3330,1 50836U 22001AK  22172.71137448  .00000005  00000-0  18462-4 0  9996,2 50836  53.2175 150.8228 0003108  43.1614 316.9621 15.08835734 25306,6917.893,95.438,541.909,537.6080000000002,0.0
50836.0,STARLINK-3330,PAYLOAD,2022-06-22 07:22:50,15.08842273,0.0003112,53.2174,148.1463,44.6283,315.4959,3.7952e-05,3.15e-06,0.0,0 STARLINK-3330,1 50836U 22001AK  22173.30752978  .00000315  00000-0  37952-4 0  9992,2 50836  53.2174 148.1463 0003112  44.6283 315.4959 15.08842273 25392,6917.873000000001,95.437,541.891,537.586,0.0
50836.0,STARLINK-3330,PAYLOAD,2022-06-22 20:05:55,15.08843618,0.0003077,53.2172,145.7673,44.5985,315.5254,0.00012295,1.669e-05,0.0,0 STARLINK-3330,1 50836U 22001AK  22173.83744484  .00001669  00000-0  12295-3 0  9998,2 50836  53.2172 145.7673 0003077  44.5985 315.5254 15.08843618 26837,6917.869000000002,95.437,541.863,537.606,0.0
50836.0,STARLINK-3330,PAYLOAD,2022-06-23 07:13:37,15.08837732,0.0003197,53.2175,143.6861,47.0586,313.0674,9.6483e-05,1.247e-05,0.0,0 STARLINK-3330,1 50836U 22001AK  22174.30112877  .00001247  00000-0  96483-4 0  9990,2 50836  53.2175 143.6861 0003197  47.0586 313.0674 15.08837732 26901,6917.887,95.438,541.964,537.5409999999998,0.0
50836.0,STARLINK-3330,PAYLOAD,2022-06-23 18:21:19,15.08835312,0.0003225,53.2176,141.6047,47.1148,313.0115,4.7796e-05,4.72e-06,0.0,0 STARLINK-3330,1 50836U 22001AK  22174.76481258  .00000472  00000-0  47796-4 0  9994,2 50836  53.2176 141.6047 0003225  47.1148 313.0115 15.08835312 25612,6917.895,95.438,541.991,537.529,0.0
50836.0,STARLINK-3330,PAYLOAD,2022-06-24 07:04:24,15.08841333,0.0003253999999999,53.2177,139.226,48.316,311.811,4.3593e-05,4.05e-06,0.0,0 STARLINK-3330,1 50836U 22001AK  22175.29472893  .00000405  00000-0  43593-4 0  9995,2 50836  53.2177 139.2260 0003254  48.3160 311.8110 15.08841333 25691,6917.876,95.437,541.992,537.49,0.0
50836.0,STARLINK-3330,PAYLOAD,2022-06-24 16:36:43,15.08845184,0.000326,53.2179,137.4421,48.5719,311.5553,4.8377e-05,4.81e-06,0.0,0 STARLINK-3330,1 50836U 22001AK  22175.69216527  .00000481  00000-0  48377-4 0  9998,2 50836  53.2179 137.4421 0003260  48.5719 311.5553 15.08845184 27116,6917.865,95.437,541.985,537.474,0.0
50836.0,STARLINK-3330,PAYLOAD,2022-06-25 03:44:25,15.08835761,0.0003236,53.2175,135.36,49.7682,310.3593,-5.636e-05,-1.186e-05,0.0,0 STARLINK-3330,1 50836U 22001AK  22176.15585398 -.00001186  00000-0 -56360-4 0  9991,2 50836  53.2175 135.3600 0003236  49.7682 310.3593 15.08835761 27181,6917.893,95.438,541.997,537.52,0.0
50836.0,STARLINK-3330,PAYLOAD,2022-06-25 06:55:12,15.08835239,0.0003215,53.2175,134.7651,50.4568,309.6708,-6.37e-05,-1.302e-05,0.0,0 STARLINK-3330,1 50836U 22001AK  22176.28833473 -.00001302  00000-0 -63700-4 0  9991,2 50836  53.2175 134.7651 0003215  50.4568 309.6708 15.08835239 25849,6917.895,95.438,541.984,537.536,0.0
50836.0,STARLINK-3330,PAYLOAD,2022-06-25 19:38:16,15.08837396,0.0003213,53.2174,132.3864,50.3278,309.7997,4.9577e-05,5e-06,0.0,0 STARLINK-3330,1 50836U 22001AK  22176.81825170  .00000500  00000-0  49577-4 0  9998,2 50836  53.2174 132.3864 0003213  50.3278 309.7997 15.08837396 25929,6917.888000000001,95.438,541.976,537.531,0.0
50836.0,STARLINK-3330,PAYLOAD,2022-06-26 03:35:12,15.08840605,0.0003203,53.2175,130.8994,51.2134,308.9144,7.4643e-05,8.99e-06,0.0,0 STARLINK-3330,1 50836U 22001AK  22177.14944973  .00000899  00000-0  74643-4 0  9991,2 50836  53.2175 130.8994 0003203  51.2134 308.9144 15.08840605 27336,6917.879,95.438,541.9590000000002,537.528,0.0
50836.0,STARLINK-3330,PAYLOAD,2022-06-26 06:45:58,15.08844871,0.0003216,53.2175,130.305,50.9776,309.1502,5.0083e-05,5.09e-06,0.0,0 STARLINK-3330,1 50836U 22001AK  22177.28192773  .00000509  00000-0  50083-4 0  9999,2 50836  53.2175 130.3050 0003216  50.9776 309.1502 15.08844871 25996,6917.866,95.437,541.955,537.506,0.0
50836.0,STARLINK-3330,PAYLOAD,2022-06-26 21:04:27,15.08839178,0.0003286,53.2174,127.6293,51.4218,308.7068,-4.5019e-05,-1.005e-05,0.0,0 STARLINK-3330,1 50836U 22001AK  22177.87809298 -.00001005  00000-0 -45019-4 0  9998,2 50836  53.2174 127.6293 0003286  51.4218 308.7068 15.08839178 26084,6917.8830000000025,95.438,542.021,537.475,0.0
50836.0,STARLINK-3330,PAYLOAD,2022-06-27 03:25:59,15.08836172,0.0003231,53.2176,126.4395,51.7999,308.3284,4.7951e-05,4.74e-06,0.0,0 STARLINK-3330,1 50836U 22001AK  22178.14305279  .00000474  00000-0  47951-4 0  9993,2 50836  53.2176 126.4395 0003231  51.7999 308.3284 15.08836172 27487,6917.892,95.438,541.992,537.5219999999998,0.0
50836.0,STARLINK-3330,PAYLOAD,2022-06-27 16:09:05,15.08834883,0.0003246,53.2175,124.0609,52.8091,307.3197,5.431e-05,5.76e-06,0.0,0 STARLINK-3330,1 50836U 22001AK  22178.67297500  .00000576  00000-0  54310-4 0  9998,2 50836  53.2175 124.0609 0003246  52.8091 307.3197 15.08834883 26207,6917.896,95.438,542.007,537.515,0.0
